{
  "type": "FeatureCollection",
  "features": [
    {
      "type": "Feature",
      "properties": {
        "norad_id": 30728,
        "name": "FENGYUN 1C DEB",
        "group": "fengyun-1c-debris",
        "lat": 48.70837775815806,
        "lon": -2.1650179746642295,
        "alt_km": 738.9132984164489,
        "timestamp": "2025-12-27T10:28:59.072901+00:00",
        "meta_object_name": "FENGYUN 1C DEB",
        "meta_object_id": "1999-025ASN",
        "meta_epoch": "2025-12-27T00:08:02.965632",
        "meta_mean_motion": 14.23479701,
        "meta_eccentricity": 0.0099151,
        "meta_inclination": 98.5293,
        "meta_ra_of_asc_node": 7.2554,
        "meta_arg_of_pericenter": 40.838,
        "meta_mean_anomaly": 320.0174,
        "meta_ephemeris_type": 0,
        "meta_classification_type": "U",
        "meta_norad_cat_id": 30728,
        "meta_element_set_no": 999,
        "meta_rev_at_epoch": 97892,
        "meta_bstar": 9.206e-05,
        "meta_mean_motion_dot": 1.78e-06,
        "meta_mean_motion_ddot": 0,
        "tle_line1": "1 30728U 99025ASN 25361.00558988  .00000178  00000+0  92060-4 0  9991",
        "tle_line2": "2 30728  98.5293   7.2554 0099151  40.8380 320.0174 14.23479701978929"
      },
      "geometry": {
        "type": "Point",
        "coordinates": [
          -2.1650179746642295,
          48.70837775815806
        ]
      }
    },
    {
      "type": "Feature",
      "properties": {
        "norad_id": 30730,
        "name": "FENGYUN 1C DEB",
        "group": "fengyun-1c-debris",
        "lat": 79.54863901596451,
        "lon": -84.39886770889757,
        "alt_km": 798.3806214323367,
        "timestamp": "2025-12-27T10:28:59.072911+00:00",
        "meta_object_name": "FENGYUN 1C DEB",
        "meta_object_id": "1999-025ASQ",
        "meta_epoch": "2025-12-27T01:45:00.420192",
        "meta_mean_motion": 14.25540926,
        "meta_eccentricity": 0.007764,
        "meta_inclination": 98.6175,
        "meta_ra_of_asc_node": 39.9481,
        "meta_arg_of_pericenter": 7.4525,
        "meta_mean_anomaly": 21.2559,
        "meta_ephemeris_type": 0,
        "meta_classification_type": "U",
        "meta_norad_cat_id": 30730,
        "meta_element_set_no": 999,
        "meta_rev_at_epoch": 97210,
        "meta_bstar": 0.001092,
        "meta_mean_motion_dot": 2.623e-05,
        "meta_mean_motion_ddot": 0,
        "tle_line1": "1 30730U 99025ASQ 25361.07292153  .00002623  00000+0  10920-2 0  9990",
        "tle_line2": "2 30730  98.6175  39.9481 0077640   7.4525  21.2559 14.25540926972103"
      },
      "geometry": {
        "type": "Point",
        "coordinates": [
          -84.39886770889757,
          79.54863901596451
        ]
      }
    },
    {
      "type": "Feature",
      "properties": {
        "norad_id": 30731,
        "name": "FENGYUN 1C DEB",
        "group": "fengyun-1c-debris",
        "lat": 46.423669492297854,
        "lon": 71.96176315901351,
        "alt_km": 758.438342117458,
        "timestamp": "2025-12-27T10:28:59.072921+00:00",
        "meta_object_name": "FENGYUN 1C DEB",
        "meta_object_id": "1999-025ASR",
        "meta_epoch": "2025-12-27T03:53:16.761120",
        "meta_mean_motion": 14.41967349,
        "meta_eccentricity": 0.0015911,
        "meta_inclination": 98.8576,
        "meta_ra_of_asc_node": 81.1094,
        "meta_arg_of_pericenter": 206.4355,
        "meta_mean_anomaly": 215.1922,
        "meta_ephemeris_type": 0,
        "meta_classification_type": "U",
        "meta_norad_cat_id": 30731,
        "meta_element_set_no": 999,
        "meta_rev_at_epoch": 97564,
        "meta_bstar": 0.0026649,
        "meta_mean_motion_dot": 8.713e-05,
        "meta_mean_motion_ddot": 0,
        "tle_line1": "1 30731U 99025ASR 25361.16199955  .00008713  00000+0  26649-2 0  9998",
        "tle_line2": "2 30731  98.8576  81.1094 0015911 206.4355 215.1922 14.41967349975645"
      },
      "geometry": {
        "type": "Point",
        "coordinates": [
          71.96176315901351,
          46.423669492297854
        ]
      }
    },
    {
      "type": "Feature",
      "properties": {
        "norad_id": 30732,
        "name": "FENGYUN 1C DEB",
        "group": "fengyun-1c-debris",
        "lat": -47.89534395635996,
        "lon": 30.96522326692709,
        "alt_km": 959.2783892692287,
        "timestamp": "2025-12-27T10:28:59.072931+00:00",
        "meta_object_name": "FENGYUN 1C DEB",
        "meta_object_id": "1999-025ASS",
        "meta_epoch": "2025-12-26T13:12:15.534720",
        "meta_mean_motion": 14.03913572,
        "meta_eccentricity": 0.0124293,
        "meta_inclination": 98.8027,
        "meta_ra_of_asc_node": 20.2335,
        "meta_arg_of_pericenter": 170.3045,
        "meta_mean_anomaly": 341.7178,
        "meta_ephemeris_type": 0,
        "meta_classification_type": "U",
        "meta_norad_cat_id": 30732,
        "meta_element_set_no": 999,
        "meta_rev_at_epoch": 96385,
        "meta_bstar": 0.00013304,
        "meta_mean_motion_dot": 1.83e-06,
        "meta_mean_motion_ddot": 0,
        "tle_line1": "1 30732U 99025ASS 25360.55017980  .00000183  00000+0  13304-3 0  9996",
        "tle_line2": "2 30732  98.8027  20.2335 0124293 170.3045 341.7178 14.03913572963854"
      },
      "geometry": {
        "type": "Point",
        "coordinates": [
          30.96522326692709,
          -47.89534395635996
        ]
      }
    },
    {
      "type": "Feature",
      "properties": {
        "norad_id": 30735,
        "name": "FENGYUN 1C DEB",
        "group": "fengyun-1c-debris",
        "lat": 17.1655845672103,
        "lon": -104.81436771864638,
        "alt_km": 778.824330857773,
        "timestamp": "2025-12-27T10:28:59.072941+00:00",
        "meta_object_name": "FENGYUN 1C DEB",
        "meta_object_id": "1999-025ASV",
        "meta_epoch": "2025-12-26T03:39:16.764768",
        "meta_mean_motion": 14.24061785,
        "meta_eccentricity": 0.00603666,
        "meta_inclination": 98.7622,
        "meta_ra_of_asc_node": 71.1748,
        "meta_arg_of_pericenter": 206.4863,
        "meta_mean_anomaly": 214.9357,
        "meta_ephemeris_type": 0,
        "meta_classification_type": "U",
        "meta_norad_cat_id": 30735,
        "meta_element_set_no": 999,
        "meta_rev_at_epoch": 96939,
        "meta_bstar": 0.0016045311,
        "meta_mean_motion_dot": 3.715e-05,
        "meta_mean_motion_ddot": 0,
        "tle_line1": "1 30735U 99025ASV 25360.15227737  .00003715  00000+0  16045-2 0  9996",
        "tle_line2": "2 30735  98.7622  71.1748 0060366 206.4863 214.9357 14.24061785969397"
      },
      "geometry": {
        "type": "Point",
        "coordinates": [
          -104.81436771864638,
          17.1655845672103
        ]
      }
    },
    {
      "type": "Feature",
      "properties": {
        "norad_id": 30736,
        "name": "FENGYUN 1C DEB",
        "group": "fengyun-1c-debris",
        "lat": -2.4149845798949126,
        "lon": 38.29495042601822,
        "alt_km": 835.6761389912554,
        "timestamp": "2025-12-27T10:28:59.072967+00:00",
        "meta_object_name": "FENGYUN 1C DEB",
        "meta_object_id": "1999-025ASW",
        "meta_epoch": "2025-12-22T02:01:20.851104",
        "meta_mean_motion": 13.6166731,
        "meta_eccentricity": 0.0279263,
        "meta_inclination": 98.7812,
        "meta_ra_of_asc_node": 33.0986,
        "meta_arg_of_pericenter": 29.8764,
        "meta_mean_anomaly": 24.4821,
        "meta_ephemeris_type": 0,
        "meta_classification_type": "U",
        "meta_norad_cat_id": 30736,
        "meta_element_set_no": 999,
        "meta_rev_at_epoch": 92980,
        "meta_bstar": 0.0017109698,
        "meta_mean_motion_dot": 1.664e-05,
        "meta_mean_motion_ddot": 0,
        "tle_line1": "1 30736U 99025ASW 25356.08426911  .00001664  00000+0  17110-2 0  9994",
        "tle_line2": "2 30736  98.7812  33.0986 0279263  29.8764  24.4821 13.61667310929803"
      },
      "geometry": {
        "type": "Point",
        "coordinates": [
          38.29495042601822,
          -2.4149845798949126
        ]
      }
    },
    {
      "type": "Feature",
      "properties": {
        "norad_id": 30737,
        "name": "FENGYUN 1C DEB",
        "group": "fengyun-1c-debris",
        "lat": 35.478456221030655,
        "lon": 169.44358720932348,
        "alt_km": 818.1381199974903,
        "timestamp": "2025-12-27T10:28:59.072984+00:00",
        "meta_object_name": "FENGYUN 1C DEB",
        "meta_object_id": "1999-025ASX",
        "meta_epoch": "2025-12-27T04:48:11.906784",
        "meta_mean_motion": 14.18273197,
        "meta_eccentricity": 0.0024501,
        "meta_inclination": 98.5808,
        "meta_ra_of_asc_node": 343.037,
        "meta_arg_of_pericenter": 91.4325,
        "meta_mean_anomaly": 284.6733,
        "meta_ephemeris_type": 0,
        "meta_classification_type": "U",
        "meta_norad_cat_id": 30737,
        "meta_element_set_no": 999,
        "meta_rev_at_epoch": 97238,
        "meta_bstar": 0.000367,
        "meta_mean_motion_dot": 7.16e-06,
        "meta_mean_motion_ddot": 0,
        "tle_line1": "1 30737U 99025ASX 25361.20013781  .00000716  00000+0  36700-3 0  9996",
        "tle_line2": "2 30737  98.5808 343.0370 0024501  91.4325 284.6733 14.18273197972381"
      },
      "geometry": {
        "type": "Point",
        "coordinates": [
          169.44358720932348,
          35.478456221030655
        ]
      }
    }
  ]
}